start=new Date('2023-03-01T00:00:00.000Z').valueOf();
sats=[{"SITE":"AFETR","PERIOD":"95.439","GP_ID":"227274702","OBJECT_TYPE":"PAYLOAD","REF_FRAME":"TEME","MEAN_ELEMENT_THEORY":"SGP4","INCLINATION":"53.2163","RA_OF_ASC_NODE":"79.3235","EPOCH":"2023-02-28T18:20:14.838432","NORAD_CAT_ID":"49733","COUNTRY_CODE":"US","OBJECT_ID":"2021-115K","MEAN_MOTION":"15.08818470","SEMIMAJOR_AXIS":"6917.946","TLE_LINE2":"2 49733  53.2163  79.3235 0001789 102.8602 257.2590 15.08818470 69693","ELEMENT_SET_NO":"999","TLE_LINE1":"1 49733U 21115K   23059.76406063 -.00007503  00000-0 -45403-3 0  9993","DECAY_DATE":null,"OBJECT_NAME":"STARLINK-3252","REV_AT_EPOCH":"6969","MEAN_MOTION_DOT":"-0.00007503","TIME_SYSTEM":"UTC","LAUNCH_DATE":"2021-12-02","MEAN_MOTION_DDOT":"0.0000000000000","ARG_OF_PERICENTER":"102.8602","APOAPSIS":"541.049","CLASSIFICATION_TYPE":"U","PERIAPSIS":"538.574","RCS_SIZE":"LARGE","CENTER_NAME":"EARTH","EPHEMERIS_TYPE":"0","BSTAR":"-0.00045403000000","ECCENTRICITY":"0.00017890","MEAN_ANOMALY":"257.2590","FILE":"3847822"},{"MEAN_ANOMALY":"260.8114","FILE":"3847792","ECCENTRICITY":"0.00015450","EPHEMERIS_TYPE":"0","BSTAR":"0.00041396000000","CENTER_NAME":"EARTH","RCS_SIZE":"LARGE","CLASSIFICATION_TYPE":"U","PERIAPSIS":"538.660","MEAN_MOTION_DDOT":"0.0000000000000","ARG_OF_PERICENTER":"99.3053","APOAPSIS":"540.797","MEAN_MOTION_DOT":"0.00006307","TIME_SYSTEM":"UTC","LAUNCH_DATE":"2021-12-02","TLE_LINE1":"1 49734U 21115L   23059.71713230  .00006307  00000-0  41396-3 0  9992","OBJECT_NAME":"STARLINK-3238","DECAY_DATE":null,"REV_AT_EPOCH":"6983","TLE_LINE2":"2 49734  53.2185  69.5586 0001545  99.3053 260.8114 15.08845494 69832","ELEMENT_SET_NO":"999","MEAN_MOTION":"15.08845494","SEMIMAJOR_AXIS":"6917.864","NORAD_CAT_ID":"49734","COUNTRY_CODE":"US","OBJECT_ID":"2021-115L","EPOCH":"2023-02-28T17:12:40.230720","REF_FRAME":"TEME","MEAN_ELEMENT_THEORY":"SGP4","INCLINATION":"53.2185","RA_OF_ASC_NODE":"69.5586","SITE":"AFETR","PERIOD":"95.437","OBJECT_TYPE":"PAYLOAD","GP_ID":"227274773"},{"CENTER_NAME":"EARTH","RCS_SIZE":"LARGE","CLASSIFICATION_TYPE":"U","PERIAPSIS":"538.637","ARG_OF_PERICENTER":"78.7590","MEAN_MOTION_DDOT":"0.0000000000000","APOAPSIS":"540.912","MEAN_ANOMALY":"281.3586","FILE":"3847866","ECCENTRICITY":"0.00016440","EPHEMERIS_TYPE":"0","BSTAR":"0.00002853700000","NORAD_CAT_ID":"49735","OBJECT_ID":"2021-115M","COUNTRY_CODE":"US","EPOCH":"2023-02-28T18:25:31.355328","INCLINATION":"53.2176","MEAN_ELEMENT_THEORY":"SGP4","REF_FRAME":"TEME","RA_OF_ASC_NODE":"79.3089","PERIOD":"95.438","SITE":"AFETR","GP_ID":"227276124","OBJECT_TYPE":"PAYLOAD","LAUNCH_DATE":"2021-12-02","MEAN_MOTION_DOT":"0.00000166","TIME_SYSTEM":"UTC","TLE_LINE1":"1 49735U 21115M   23059.76772402  .00000166  00000-0  28537-4 0  9994","REV_AT_EPOCH":"6969","DECAY_DATE":null,"OBJECT_NAME":"STARLINK-3113","TLE_LINE2":"2 49735  53.2176  79.3089 0001644  78.7590 281.3586 15.08830501 69695","ELEMENT_SET_NO":"999","MEAN_MOTION":"15.08830501","SEMIMAJOR_AXIS":"6917.909"},{"MEAN_ANOMALY":"291.9686","FILE":"3847868","ECCENTRICITY":"0.00013700","EPHEMERIS_TYPE":"0","BSTAR":"0.00045386000000","CENTER_NAME":"EARTH","RCS_SIZE":"LARGE","CLASSIFICATION_TYPE":"U","PERIAPSIS":"538.730","MEAN_MOTION_DDOT":"0.0000000000000","ARG_OF_PERICENTER":"68.1452","APOAPSIS":"540.626","MEAN_MOTION_DOT":"0.00006947","TIME_SYSTEM":"UTC","LAUNCH_DATE":"2021-12-02","TLE_LINE1":"1 49736U 21115N   23059.72543298  .00006947  00000-0  45386-3 0  9993","DECAY_DATE":null,"OBJECT_NAME":"STARLINK-3148","REV_AT_EPOCH":"6983","TLE_LINE2":"2 49736  53.2158  69.5043 0001370  68.1452 291.9686 15.08862096 69831","ELEMENT_SET_NO":"999","MEAN_MOTION":"15.08862096","SEMIMAJOR_AXIS":"6917.813","NORAD_CAT_ID":"49736","COUNTRY_CODE":"US","OBJECT_ID":"2021-115N","EPOCH":"2023-02-28T17:24:37.409472","MEAN_ELEMENT_THEORY":"SGP4","REF_FRAME":"TEME","INCLINATION":"53.2158","RA_OF_ASC_NODE":"69.5043","SITE":"AFETR","PERIOD":"95.436","OBJECT_TYPE":"PAYLOAD","GP_ID":"227276158"},{"MEAN_ANOMALY":"284.2734","FILE":"3847849","ECCENTRICITY":"0.00022940","EPHEMERIS_TYPE":"0","BSTAR":"-0.00017325000000","CENTER_NAME":"EARTH","RCS_SIZE":"LARGE","CLASSIFICATION_TYPE":"U","PERIAPSIS":"538.197","ARG_OF_PERICENTER":"75.8513","MEAN_MOTION_DDOT":"0.0000000000000","APOAPSIS":"541.371","LAUNCH_DATE":"2021-12-02","TIME_SYSTEM":"UTC","MEAN_MOTION_DOT":"-0.00003044","TLE_LINE1":"1 49737U 21115P   23059.72081855 -.00003044  00000-0 -17325-3 0  9999","DECAY_DATE":null,"REV_AT_EPOCH":"6983","OBJECT_NAME":"STARLINK-3225","TLE_LINE2":"2 49737  53.2167  69.5166 0002294  75.8513 284.2734 15.08827356 69836","ELEMENT_SET_NO":"999","MEAN_MOTION":"15.08827356","SEMIMAJOR_AXIS":"6917.919","NORAD_CAT_ID":"49737","OBJECT_ID":"2021-115P","COUNTRY_CODE":"US","EPOCH":"2023-02-28T17:17:58.722720","INCLINATION":"53.2167","REF_FRAME":"TEME","MEAN_ELEMENT_THEORY":"SGP4","RA_OF_ASC_NODE":"69.5166","PERIOD":"95.438","SITE":"AFETR","OBJECT_TYPE":"PAYLOAD","GP_ID":"227275909"},{"OBJECT_TYPE":"PAYLOAD","GP_ID":"227275905","SITE":"AFETR","PERIOD":"95.437","RA_OF_ASC_NODE":"69.4817","REF_FRAME":"TEME","MEAN_ELEMENT_THEORY":"SGP4","INCLINATION":"53.2182","EPOCH":"2023-02-28T17:28:33.222720","COUNTRY_CODE":"US","OBJECT_ID":"2021-115Q","NORAD_CAT_ID":"49738","SEMIMAJOR_AXIS":"6917.854","MEAN_MOTION":"15.08848760","ELEMENT_SET_NO":"999","TLE_LINE2":"2 49738  53.2182  69.4817 0001229  72.9838 287.1289 15.08848760 69830","DECAY_DATE":null,"OBJECT_NAME":"STARLINK-3143","REV_AT_EPOCH":"6983","TLE_LINE1":"1 49738U 21115Q   23059.72816230  .00000937  00000-0  76913-4 0  9998","TIME_SYSTEM":"UTC","MEAN_MOTION_DOT":"0.00000937","LAUNCH_DATE":"2021-12-02","APOAPSIS":"540.569","MEAN_MOTION_DDOT":"0.0000000000000","ARG_OF_PERICENTER":"72.9838","PERIAPSIS":"538.868","CLASSIFICATION_TYPE":"U","RCS_SIZE":"LARGE","CENTER_NAME":"EARTH","BSTAR":"0.00007691300000","EPHEMERIS_TYPE":"0","ECCENTRICITY":"0.00012290","FILE":"3847849","MEAN_ANOMALY":"287.1289"},{"RCS_SIZE":"LARGE","CENTER_NAME":"EARTH","PERIAPSIS":"539.093","CLASSIFICATION_TYPE":"U","APOAPSIS":"540.558","ARG_OF_PERICENTER":"101.3273","MEAN_MOTION_DDOT":"0.0000000000000","FILE":"3847849","MEAN_ANOMALY":"258.7838","ECCENTRICITY":"0.00010590","BSTAR":"-0.00083842000000","EPHEMERIS_TYPE":"0","OBJECT_ID":"2021-115R","COUNTRY_CODE":"US","NORAD_CAT_ID":"49739","EPOCH":"2023-02-28T18:36:08.023968","RA_OF_ASC_NODE":"79.2715","INCLINATION":"53.2145","REF_FRAME":"TEME","MEAN_ELEMENT_THEORY":"SGP4","OBJECT_TYPE":"PAYLOAD","GP_ID":"227275907","PERIOD":"95.439","SITE":"AFETR","LAUNCH_DATE":"2021-12-02","MEAN_MOTION_DOT":"-0.00013597","TIME_SYSTEM":"UTC","REV_AT_EPOCH":"6969","DECAY_DATE":null,"OBJECT_NAME":"STARLINK-3155","TLE_LINE1":"1 49739U 21115R   23059.77509287 -.00013597  00000-0 -83842-3 0  9991","ELEMENT_SET_NO":"999","TLE_LINE2":"2 49739  53.2145  79.2715 0001059 101.3273 258.7838 15.08813695 69694","SEMIMAJOR_AXIS":"6917.961","MEAN_MOTION":"15.08813695"},{"ECCENTRICITY":"0.00012800","FILE":"3847857","MEAN_ANOMALY":"276.9221","BSTAR":"0.00001457900000","EPHEMERIS_TYPE":"0","CENTER_NAME":"EARTH","RCS_SIZE":"LARGE","APOAPSIS":"540.614","MEAN_MOTION_DDOT":"0.0000000000000","ARG_OF_PERICENTER":"83.1917","PERIAPSIS":"538.843","CLASSIFICATION_TYPE":"U","DECAY_DATE":null,"OBJECT_NAME":"STARLINK-3226","REV_AT_EPOCH":"6983","TLE_LINE1":"1 49740U 21115S   23059.73920243 -.00000056  00000-0  14579-4 0  9995","MEAN_MOTION_DOT":"-0.00000056","TIME_SYSTEM":"UTC","LAUNCH_DATE":"2021-12-02","SEMIMAJOR_AXIS":"6917.863","MEAN_MOTION":"15.08845535","ELEMENT_SET_NO":"999","TLE_LINE2":"2 49740  53.2177  69.4331 0001280  83.1917 276.9221 15.08845535 69836","EPOCH":"2023-02-28T17:44:27.089952","COUNTRY_CODE":"US","OBJECT_ID":"2021-115S","NORAD_CAT_ID":"49740","GP_ID":"227276034","OBJECT_TYPE":"PAYLOAD","SITE":"AFETR","PERIOD":"95.437","RA_OF_ASC_NODE":"69.4331","MEAN_ELEMENT_THEORY":"SGP4","REF_FRAME":"TEME","INCLINATION":"53.2177"},{"CENTER_NAME":"EARTH","RCS_SIZE":"LARGE","PERIAPSIS":"538.497","CLASSIFICATION_TYPE":"U","APOAPSIS":"540.934","ARG_OF_PERICENTER":"71.4950","MEAN_MOTION_DDOT":"0.0000000000000","FILE":"3847865","MEAN_ANOMALY":"288.6233","ECCENTRICITY":"0.00017610","BSTAR":"-0.00050655000000","EPHEMERIS_TYPE":"0","OBJECT_ID":"2021-115T","COUNTRY_CODE":"US","NORAD_CAT_ID":"49741","EPOCH":"2023-02-28T17:33:50.761728","RA_OF_ASC_NODE":"69.4698","INCLINATION":"53.2176","MEAN_ELEMENT_THEORY":"SGP4","REF_FRAME":"TEME","OBJECT_TYPE":"PAYLOAD","GP_ID":"227276103","PERIOD":"95.437","SITE":"AFETR","LAUNCH_DATE":"2021-12-02","MEAN_MOTION_DOT":"-0.00008343","TIME_SYSTEM":"UTC","REV_AT_EPOCH":"6983","DECAY_DATE":null,"OBJECT_NAME":"STARLINK-3244","TLE_LINE1":"1 49741U 21115T   23059.73183752 -.00008343  00000-0 -50655-3 0  9994","ELEMENT_SET_NO":"999","TLE_LINE2":"2 49741  53.2176  69.4698 0001761  71.4950 288.6233 15.08849748 69836","SEMIMAJOR_AXIS":"6917.851","MEAN_MOTION":"15.08849748"},{"TLE_LINE2":"2 49742  53.2155  69.4000 0001306  92.4872 267.6269 15.08809898 69830","ELEMENT_SET_NO":"999","MEAN_MOTION":"15.08809898","SEMIMAJOR_AXIS":"6917.972","LAUNCH_DATE":"2021-12-02","TIME_SYSTEM":"UTC","MEAN_MOTION_DOT":"-0.00038907","TLE_LINE1":"1 49742U 21115U   23059.74656375 -.00038907  00000-0 -24418-2 0  9998","REV_AT_EPOCH":"6983","DECAY_DATE":null,"OBJECT_NAME":"STARLINK-3202","INCLINATION":"53.2155","MEAN_ELEMENT_THEORY":"SGP4","REF_FRAME":"TEME","RA_OF_ASC_NODE":"69.4000","PERIOD":"95.439","SITE":"AFETR","OBJECT_TYPE":"PAYLOAD","GP_ID":"227276106","NORAD_CAT_ID":"49742","OBJECT_ID":"2021-115U","COUNTRY_CODE":"US","EPOCH":"2023-02-28T17:55:03.108000","EPHEMERIS_TYPE":"0","BSTAR":"-0.00244180000000","MEAN_ANOMALY":"267.6269","FILE":"3847865","ECCENTRICITY":"0.00013060","CLASSIFICATION_TYPE":"U","PERIAPSIS":"538.934","ARG_OF_PERICENTER":"92.4872","MEAN_MOTION_DDOT":"0.0000000000000","APOAPSIS":"540.741","RCS_SIZE":"LARGE","CENTER_NAME":"EARTH"}];
